NORAD_CAT_ID,OBJECT_NAME,OBJECT_TYPE,EPOCH,MEAN_MOTION,ECCENTRICITY,INCLINATION,RA_OF_ASC_NODE,ARG_OF_PERICENTER,MEAN_ANOMALY,BSTAR,MEAN_MOTION_DOT,MEAN_MOTION_DDOT,TLE_LINE0,TLE_LINE1,TLE_LINE2,SEMIMAJOR_AXIS,PERIOD,APOGEE,PERIGEE,DECAYED
54180.0,STARLINK-5228,PAYLOAD,2023-01-26 08:41:16,15.08857145,0.0001222,53.2167,73.9272,89.2162,270.897,0.00080566,0.00012563,0.0,0 STARLINK-5228,1 54180U 22141Z   23026.36199653  .00012563  00000-0  80566-3 0  9998,2 54180  53.2167  73.9272 0001222  89.2162 270.8970 15.08857145 14247,6917.828,95.436,540.538,538.8480000000001,0.0
54180.0,STARLINK-5228,PAYLOAD,2023-01-26 11:52:02,15.0886679,0.0001262,53.2166,73.3323,84.145,275.9686,0.0010331,0.00016204,0.0,0 STARLINK-5228,1 54180U 22141Z   23026.49447390  .00016204  00000-0  10331-2 0  9994,2 54180  53.2166  73.3323 0001262  84.1450 275.9686 15.08866790 14038,6917.799,95.436,540.5369999999999,538.79,0.0
54180.0,STARLINK-5228,PAYLOAD,2023-01-27 03:45:54,15.08846708,0.0001193,53.2162,70.3578,99.1347,260.978,0.00019895,2.88e-05,0.0,0 STARLINK-5228,1 54180U 22141Z   23027.15687501  .00002880  00000-0  19895-3 0  9998,2 54180  53.2162  70.3578 0001193  99.1347 260.9780 15.08846708 14369,6917.86,95.437,540.55,538.9,0.0
54180.0,STARLINK-5228,PAYLOAD,2023-01-27 11:42:49,15.08845986,0.0001537,53.2169,68.8714,88.0286,272.0882,0.00032696,4.92e-05,0.0,0 STARLINK-5228,1 54180U 22141Z   23027.48807623  .00004920  00000-0  32696-3 0  9994,2 54180  53.2169  68.8714 0001537  88.0286 272.0882 15.08845986 14185,6917.861999999999,95.437,540.79,538.664,0.0
54180.0,STARLINK-5228,PAYLOAD,2023-01-27 19:39:45,15.0884174,0.0001592,53.2164,67.384,86.0782,274.0392,0.00033613,5.066e-05,0.0,0 STARLINK-5228,1 54180U 22141Z   23027.81927765  .00005066  00000-0  33613-3 0  9993,2 54180  53.2164  67.3840 0001592  86.0782 274.0392 15.08841740 14467,6917.875,95.437,540.841,538.639,0.0
54180.0,STARLINK-5228,PAYLOAD,2023-01-28 03:36:41,15.08833918,0.0001853,53.218,65.89699999999999,88.5252,271.5953,3.7193e-05,3.04e-06,0.0,0 STARLINK-5228,1 54180U 22141Z   23028.15048157  .00000304  00000-0  37193-4 0  9998,2 54180  53.2180  65.8970 0001853  88.5252 271.5953 15.08833918 14510,6917.899,95.438,541.0459999999999,538.482,0.0
54180.0,STARLINK-5228,PAYLOAD,2023-01-28 11:33:37,15.08839854,0.0001546,53.2171,64.4086,87.5542,272.5627,3.7462e-05,3.08e-06,0.0,0 STARLINK-5228,1 54180U 22141Z   23028.48167868  .00000308  00000-0  37462-4 0  9998,2 54180  53.2171  64.4086 0001546  87.5542 272.5627 15.08839854 14337,6917.881,95.438,540.815,538.676,0.0
54180.0,STARLINK-5228,PAYLOAD,2023-01-28 19:30:32,15.08840805,0.0001657,53.218,62.9244,86.997,273.1211,0.00012885,1.763e-05,0.0,0 STARLINK-5228,1 54180U 22141Z   23028.81288021  .00001763  00000-0  12885-3 0  9997,2 54180  53.2180  62.9244 0001657  86.9970 273.1211 15.08840805 14386,6917.878,95.438,540.889,538.597,0.0
54180.0,STARLINK-5228,PAYLOAD,2023-01-29 08:13:37,15.08845995,0.0001766,53.2179,60.5456,91.9589,268.1605,0.00030163,4.516e-05,0.0,0 STARLINK-5228,1 54180U 22141Z   23029.34280072  .00004516  00000-0  30163-3 0  9992,2 54180  53.2179  60.5456 0001766  91.9589 268.1605 15.08845995 14696,6917.862,95.437,540.949,538.505,0.0
54180.0,STARLINK-5228,PAYLOAD,2023-01-29 19:21:20,15.0884134,0.0001712,53.2168,58.464,87.7835,272.3353,0.00019579,2.829e-05,0.0,0 STARLINK-5228,1 54180U 22141Z   23029.80648260  .00002829  00000-0  19579-3 0  9993,2 54180  53.2168  58.4640 0001712  87.7835 272.3353 15.08841340 14533,6917.876,95.437,540.926,538.557,0.0
54180.0,STARLINK-5228,PAYLOAD,2023-01-30 01:42:52,15.08838857,0.0001619,53.2161,57.2746,88.8691,271.2487,0.00028625,4.27e-05,0.0,0 STARLINK-5228,1 54180U 22141Z   23030.07144415  .00004270  00000-0  28625-3 0  9991,2 54180  53.2161  57.2746 0001619  88.8691 271.2487 15.08838857 14803,6917.884,95.438,540.869,538.629,0.0
54180.0,STARLINK-5228,PAYLOAD,2023-01-30 11:15:11,15.08843035,0.0001534,53.2162,55.4896,93.2729,266.8438,0.00014121,1.96e-05,0.0,0 STARLINK-5228,1 54180U 22141Z   23030.46888138  .00001960  00000-0  14121-3 0  9990,2 54180  53.2162  55.4896 0001534  93.2729 266.8438 15.08843035 14639,6917.871,95.437,540.797,538.675,0.0
54180.0,STARLINK-5228,PAYLOAD,2023-01-30 19:12:07,15.088386,0.0001481,53.2163,54.0017,96.8577,263.2584,5.5219e-05,5.91e-06,0.0,0 STARLINK-5228,1 54180U 22141Z   23030.80008345  .00000591  00000-0  55219-4 0  9995,2 54180  53.2163  54.0017 0001481  96.8577 263.2584 15.08838600 14681,6917.885,95.438,540.774,538.725,0.0
54180.0,STARLINK-5228,PAYLOAD,2023-01-31 11:05:58,15.0884337,0.0001593,53.2164,51.0286,94.0239,266.0935,3.8111e-05,3.19e-06,0.0,0 STARLINK-5228,1 54180U 22141Z   23031.46248163  .00000319  00000-0  38111-4 0  9992,2 54180  53.2164  51.0286 0001593  94.0239 266.0935 15.08843370 15015,6917.87,95.437,540.837,538.633,0.0
54180.0,STARLINK-5228,PAYLOAD,2023-02-01 10:56:45,15.08848838,0.000157,53.2167,46.5685,91.5581,268.5591,0.0001945,2.81e-05,0.0,0 STARLINK-5228,1 54180U 22141Z   23032.45607805  .00002810  00000-0  19450-3 0  9996,2 54180  53.2167  46.5685 0001570  91.5581 268.5591 15.08848838 14936,6917.853,95.437,540.804,538.632,0.0
54180.0,STARLINK-5228,PAYLOAD,2023-02-02 01:15:14,15.08834376,0.0001402,53.2163,43.891,99.5835,260.5316,-5.7526e-06,-3.79e-06,0.0,0 STARLINK-5228,1 54180U 22141Z   23033.05224589 -.00000379  00000-0 -57526-5 0  9995,2 54180  53.2163  43.8910 0001402  99.5835 260.5316 15.08834376 15252,6917.898,95.438,540.732,538.793,0.0
54180.0,STARLINK-5228,PAYLOAD,2023-02-02 10:47:33,15.08832158,0.0001342,53.217,42.1073,98.4736,261.6408,-4.6518e-05,-1.028e-05,0.0,0 STARLINK-5228,1 54180U 22141Z   23033.44968852 -.00001028  00000-0 -46518-4 0  9996,2 54180  53.2170  42.1073 0001342  98.4736 261.6408 15.08832158 15084,6917.904,95.438,540.698,538.841,0.0
54180.0,STARLINK-5228,PAYLOAD,2023-02-03 09:02:56,15.08850663,0.0001284,53.2174,37.9444,96.9907,263.1231,0.00019533,2.823e-05,0.0,0 STARLINK-5228,1 54180U 22141Z   23034.37704038  .00002823  00000-0  19533-3 0  9991,2 54180  53.2174  37.9444 0001284  96.9907 263.1231 15.08850663 15453,6917.848,95.437,540.601,538.825,0.0
54180.0,STARLINK-5228,PAYLOAD,2023-02-04 08:53:43,15.08842118,0.0001369,53.2172,33.4835,95.7502,264.3646,0.00018322,2.629e-05,0.0,0 STARLINK-5228,1 54180U 22141Z   23035.37064543  .00002629  00000-0  18322-3 0  9991,2 54180  53.2172  33.4835 0001369  95.7502 264.3646 15.08842118 15604,6917.874,95.437,540.686,538.792,0.0
54180.0,STARLINK-5228,PAYLOAD,2023-02-04 23:12:12,15.08839209,0.0001517,53.2182,30.8089,87.8883,272.2282,6.4534e-05,7.39e-06,0.0,0 STARLINK-5228,1 54180U 22141Z   23035.96681142  .00000739  00000-0  64534-4 0  9993,2 54180  53.2182  30.8089 0001517  87.8883 272.2282 15.08839209 15696,6917.883,95.438,540.797,538.698,0.0
54180.0,STARLINK-5228,PAYLOAD,2023-02-05 08:44:30,15.08846627,0.0001284,53.2183,29.0236,96.1669,263.947,6.3159e-05,7.18e-06,0.0,0 STARLINK-5228,1 54180U 22141Z   23036.36424569  .00000718  00000-0  63159-4 0  9995,2 54180  53.2183  29.0236 0001284  96.1669 263.9470 15.08846627 15527,6917.86,95.437,540.613,538.837,0.0
54180.0,STARLINK-5228,PAYLOAD,2023-02-06 02:13:45,15.08838356,0.0001145,53.2182,25.7532,81.8247,278.2875,9.6919e-05,1.255e-05,0.0,0 STARLINK-5228,1 54180U 22141Z   23037.09289073  .00001255  00000-0  96919-4 0  9992,2 54180  53.2182  25.7532 0001145  81.8247 278.2875 15.08838356 15862,6917.885,95.438,540.543,538.958,0.0
54180.0,STARLINK-5228,PAYLOAD,2023-02-06 08:35:17,15.08848339,0.0001374,53.2171,24.5627,91.7579,268.357,0.00021156,3.081e-05,0.0,0 STARLINK-5228,1 54180U 22141Z   23037.35784651  .00003081  00000-0  21156-3 0  9992,2 54180  53.2171  24.5627 0001374  91.7579 268.3570 15.08848339 15903,6917.855,95.437,540.67,538.769,0.0
54180.0,STARLINK-5228,PAYLOAD,2023-02-07 10:01:26,15.08870339,0.0001404,53.2177,19.8051,98.0978,262.0173,0.00048742,7.484e-05,0.0,0 STARLINK-5228,1 54180U 22141Z   23038.41767110  .00007484  00000-0  48742-3 0  9992,2 54180  53.2177  19.8051 0001404  98.0978 262.0173 15.08870339 16067,6917.788,95.436,540.624,538.681,0.0
54180.0,STARLINK-5228,PAYLOAD,2023-02-08 03:30:42,15.08842367,0.0001251,53.218,16.535,106.9672,253.1457,-2.9041e-05,-7.5e-06,0.0,0 STARLINK-5228,1 54180U 22141Z   23039.14632165 -.00000750  00000-0 -29041-4 0  9997,2 54180  53.2180  16.5350 0001251 106.9672 253.1457 15.08842367 16175,6917.873,95.437,540.604,538.873,0.0
54180.0,STARLINK-5228,PAYLOAD,2023-02-08 09:52:14,15.08865765,9.31e-05,53.2179,15.3462,88.826,271.2839,0.00053354,8.22e-05,0.0,0 STARLINK-5228,1 54180U 22141Z   23039.41127317  .00008220  00000-0  53354-3 0  9996,2 54180  53.2179  15.3462 0000931  88.8260 271.2839 15.08865765 16216,6917.802,95.436,540.311,539.023,0.0
54180.0,STARLINK-5228,PAYLOAD,2023-02-09 03:21:29,15.08836893,8.19e-05,53.2192,12.0752,78.5849,281.5235,0.00046027,7.044e-05,0.0,0 STARLINK-5228,1 54180U 22141Z   23040.13992495  .00007044  00000-0  46027-3 0  9996,2 54180  53.2192  12.0752 0000819  78.5849 281.5235 15.08836893 16327,6917.89,95.438,540.321,539.188,0.0
54180.0,STARLINK-5228,PAYLOAD,2023-02-09 09:43:02,15.08863399,8.45e-05,53.2188,10.8858,73.0919,287.0166,0.0024906,0.00039598,0.0,0 STARLINK-5228,1 54180U 22141Z   23040.40488477  .00039598  00000-0  24906-2 0  9996,2 54180  53.2188  10.8858 0000845  73.0919 287.0166 15.08863399 16136,6917.809,95.436,540.258,539.089,0.0
54180.0,STARLINK-5228,PAYLOAD,2023-02-10 00:01:30,15.08850383,7.59e-05,53.2184,8.2098,111.4879,248.6194,0.0015262,0.00024092,0.0,0 STARLINK-5228,1 54180U 22141Z   23041.00104933  .00024092  00000-0  15262-2 0  9993,2 54180  53.2184   8.2098 0000759 111.4879 248.6194 15.08850383 16453,6917.849,95.437,540.239,539.189,0.0
54180.0,STARLINK-5228,PAYLOAD,2023-02-10 04:47:39,15.08876673,9.24e-05,53.2182,7.3185,104.1768,255.9327,0.0029766,0.00047451,0.0,0 STARLINK-5228,1 54180U 22141Z   23041.19976691  .00047451  00000-0  29766-2 0  9999,2 54180  53.2182   7.3185 0000924 104.1768 255.9327 15.08876673 16480,6917.768,95.435,540.272,538.994,0.0
